{
    "features": [
        {
            "geometry": {
                "coordinates": [
                    [
                        [
                            1,
                            0
                        ],
                        [
                            1,
                            1
                        ],
                        [
                            2,
                            1
                        ],
                        [
                            2,
                            0
                        ],
                        [
                            1,
                            0
                        ]
                    ]
                ],
                "type": "Polygon"
            },
            "id": 0,
            "properties": {
                "name": "A9.31"
            },
            "type": "Feature"
        },
        {
            "geometry": {
                "coordinates": [
                    [
                        [
                            2,
                            0
                        ],
                        [
                            2,
                            1
                        ],
                        [
                            3,
                            1
                        ],
                        [
                            3,
                            0
                        ],
                        [
                            2,
                            0
                        ]
                    ]
                ],
                "type": "Polygon"
            },
            "id": 1,
            "properties": {
                "name": "A9.29"
            },
            "type": "Feature"
        },
        {
            "geometry": {
                "coordinates": [
                    [
                        [
                            3,
                            0
                        ],
                        [
                            3,
                            1
                        ],
                        [
                            4,
                            1
                        ],
                        [
                            4,
                            0
                        ],
                        [
                            3,
                            0
                        ]
                    ]
                ],
                "type": "Polygon"
            },
            "id": 2,
            "properties": {
                "name": "A9.15"
            },
            "type": "Feature"
        },
        {
            "geometry": {
                "coordinates": [
                    [
                        [
                            4,
                            0
                        ],
                        [
                            4,
                            1
                        ],
                        [
                            5,
                            1
                        ],
                        [
                            5,
                            0
                        ],
                        [
                            4,
                            0
                        ]
                    ]
                ],
                "type": "Polygon"
            },
            "id": 3,
            "properties": {
                "name": "A9.13"
            },
            "type": "Feature"
        },
        {
            "geometry": {
                "coordinates": [
                    [
                        [
                            5,
                            0
                        ],
                        [
                            5,
                            1
                        ],
                        [
                            6,
                            1
                        ],
                        [
                            6,
                            0
                        ],
                        [
                            5,
                            0
                        ]
                    ]
                ],
                "type": "Polygon"
            },
            "id": 4,
            "properties": {
                "name": "A9.13*"
            },
            "type": "Feature"
        },
        {
            "geometry": {
                "coordinates": [
                    [
                        [
                            6,
                            0
                        ],
                        [
                            6,
                            1
                        ],
                        [
                            7,
                            1
                        ],
                        [
                            7,
                            0
                        ],
                        [
                            6,
                            0
                        ]
                    ]
                ],
                "type": "Polygon"
            },
            "id": 5,
            "properties": {
                "name": "A9.15*"
            },
            "type": "Feature"
        },
        {
            "geometry": {
                "coordinates": [
                    [
                        [
                            7,
                            0
                        ],
                        [
                            7,
                            1
                        ],
                        [
                            8,
                            1
                        ],
                        [
                            8,
                            0
                        ],
                        [
                            7,
                            0
                        ]
                    ]
                ],
                "type": "Polygon"
            },
            "id": 6,
            "properties": {
                "name": "A9.29*"
            },
            "type": "Feature"
        },
        {
            "geometry": {
                "coordinates": [
                    [
                        [
                            8,
                            0
                        ],
                        [
                            8,
                            1
                        ],
                        [
                            9,
                            1
                        ],
                        [
                            9,
                            0
                        ],
                        [
                            8,
                            0
                        ]
                    ]
                ],
                "type": "Polygon"
            },
            "id": 7,
            "properties": {
                "name": "A9.31*"
            },
            "type": "Feature"
        },
        {
            "geometry": {
                "coordinates": [
                    [
                        [
                            0,
                            1
                        ],
                        [
                            0,
                            2
                        ],
                        [
                            1,
                            2
                        ],
                        [
                            1,
                            1
                        ],
                        [
                            0,
                            1
                        ]
                    ]
                ],
                "type": "Polygon"
            },
            "id": 8,
            "properties": {
                "name": "b10.74"
            },
            "type": "Feature"
        },
        {
            "geometry": {
                "coordinates": [
                    [
                        [
                            1,
                            1
                        ],
                        [
                            1,
                            2
                        ],
                        [
                            2,
                            2
                        ],
                        [
                            2,
                            1
                        ],
                        [
                            1,
                            1
                        ]
                    ]
                ],
                "type": "Polygon"
            },
            "id": 9,
            "properties": {
                "name": "A9.32"
            },
            "type": "Feature"
        },
        {
            "geometry": {
                "coordinates": [
                    [
                        [
                            2,
                            1
                        ],
                        [
                            2,
                            2
                        ],
                        [
                            3,
                            2
                        ],
                        [
                            3,
                            1
                        ],
                        [
                            2,
                            1
                        ]
                    ]
                ],
                "type": "Polygon"
            },
            "id": 10,
            "properties": {
                "name": "A9.30"
            },
            "type": "Feature"
        },
        {
            "geometry": {
                "coordinates": [
                    [
                        [
                            3,
                            1
                        ],
                        [
                            3,
                            2
                        ],
                        [
                            4,
                            2
                        ],
                        [
                            4,
                            1
                        ],
                        [
                            3,
                            1
                        ]
                    ]
                ],
                "type": "Polygon"
            },
            "id": 11,
            "properties": {
                "name": "A9.16"
            },
            "type": "Feature"
        },
        {
            "geometry": {
                "coordinates": [
                    [
                        [
                            4,
                            1
                        ],
                        [
                            4,
                            2
                        ],
                        [
                            5,
                            2
                        ],
                        [
                            5,
                            1
                        ],
                        [
                            4,
                            1
                        ]
                    ]
                ],
                "type": "Polygon"
            },
            "id": 12,
            "properties": {
                "name": "A9.14"
            },
            "type": "Feature"
        },
        {
            "geometry": {
                "coordinates": [
                    [
                        [
                            5,
                            1
                        ],
                        [
                            5,
                            2
                        ],
                        [
                            6,
                            2
                        ],
                        [
                            6,
                            1
                        ],
                        [
                            5,
                            1
                        ]
                    ]
                ],
                "type": "Polygon"
            },
            "id": 13,
            "properties": {
                "name": "A9.14*"
            },
            "type": "Feature"
        },
        {
            "geometry": {
                "coordinates": [
                    [
                        [
                            6,
                            1
                        ],
                        [
                            6,
                            2
                        ],
                        [
                            7,
                            2
                        ],
                        [
                            7,
                            1
                        ],
                        [
                            6,
                            1
                        ]
                    ]
                ],
                "type": "Polygon"
            },
            "id": 14,
            "properties": {
                "name": "A9.16*"
            },
            "type": "Feature"
        },
        {
            "geometry": {
                "coordinates": [
                    [
                        [
                            7,
                            1
                        ],
                        [
                            7,
                            2
                        ],
                        [
                            8,
                            2
                        ],
                        [
                            8,
                            1
                        ],
                        [
                            7,
                            1
                        ]
                    ]
                ],
                "type": "Polygon"
            },
            "id": 15,
            "properties": {
                "name": "A9.30*"
            },
            "type": "Feature"
        },
        {
            "geometry": {
                "coordinates": [
                    [
                        [
                            8,
                            1
                        ],
                        [
                            8,
                            2
                        ],
                        [
                            9,
                            2
                        ],
                        [
                            9,
                            1
                        ],
                        [
                            8,
                            1
                        ]
                    ]
                ],
                "type": "Polygon"
            },
            "id": 16,
            "properties": {
                "name": "A9.32*"
            },
            "type": "Feature"
        },
        {
            "geometry": {
                "coordinates": [
                    [
                        [
                            9,
                            1
                        ],
                        [
                            9,
                            2
                        ],
                        [
                            10,
                            2
                        ],
                        [
                            10,
                            1
                        ],
                        [
                            9,
                            1
                        ]
                    ]
                ],
                "type": "Polygon"
            },
            "id": 17,
            "properties": {
                "name": "b10.74*"
            },
            "type": "Feature"
        },
        {
            "geometry": {
                "coordinates": [
                    [
                        [
                            0,
                            2
                        ],
                        [
                            0,
                            3
                        ],
                        [
                            1,
                            3
                        ],
                        [
                            1,
                            2
                        ],
                        [
                            0,
                            2
                        ]
                    ]
                ],
                "type": "Polygon"
            },
            "id": 18,
            "properties": {
                "name": "b10.75"
            },
            "type": "Feature"
        },
        {
            "geometry": {
                "coordinates": [
                    [
                        [
                            2,
                            2
                        ],
                        [
                            2,
                            3
                        ],
                        [
                            3,
                            3
                        ],
                        [
                            3,
                            2
                        ],
                        [
                            2,
                            2
                        ]
                    ]
                ],
                "type": "Polygon"
            },
            "id": 19,
            "properties": {
                "name": "a9.49"
            },
            "type": "Feature"
        },
        {
            "geometry": {
                "coordinates": [
                    [
                        [
                            3,
                            2
                        ],
                        [
                            3,
                            3
                        ],
                        [
                            4,
                            3
                        ],
                        [
                            4,
                            2
                        ],
                        [
                            3,
                            2
                        ]
                    ]
                ],
                "type": "Polygon"
            },
            "id": 20,
            "properties": {
                "name": "a9.33"
            },
            "type": "Feature"
        },
        {
            "geometry": {
                "coordinates": [
                    [
                        [
                            4,
                            2
                        ],
                        [
                            4,
                            3
                        ],
                        [
                            5,
                            3
                        ],
                        [
                            5,
                            2
                        ],
                        [
                            4,
                            2
                        ]
                    ]
                ],
                "type": "Polygon"
            },
            "id": 21,
            "properties": {
                "name": "a9.37"
            },
            "type": "Feature"
        },
        {
            "geometry": {
                "coordinates": [
                    [
                        [
                            5,
                            2
                        ],
                        [
                            5,
                            3
                        ],
                        [
                            6,
                            3
                        ],
                        [
                            6,
                            2
                        ],
                        [
                            5,
                            2
                        ]
                    ]
                ],
                "type": "Polygon"
            },
            "id": 22,
            "properties": {
                "name": "a9.37*"
            },
            "type": "Feature"
        },
        {
            "geometry": {
                "coordinates": [
                    [
                        [
                            6,
                            2
                        ],
                        [
                            6,
                            3
                        ],
                        [
                            7,
                            3
                        ],
                        [
                            7,
                            2
                        ],
                        [
                            6,
                            2
                        ]
                    ]
                ],
                "type": "Polygon"
            },
            "id": 23,
            "properties": {
                "name": "a9.33*"
            },
            "type": "Feature"
        },
        {
            "geometry": {
                "coordinates": [
                    [
                        [
                            7,
                            2
                        ],
                        [
                            7,
                            3
                        ],
                        [
                            8,
                            3
                        ],
                        [
                            8,
                            2
                        ],
                        [
                            7,
                            2
                        ]
                    ]
                ],
                "type": "Polygon"
            },
            "id": 24,
            "properties": {
                "name": "a9.49*"
            },
            "type": "Feature"
        },
        {
            "geometry": {
                "coordinates": [
                    [
                        [
                            9,
                            2
                        ],
                        [
                            9,
                            3
                        ],
                        [
                            10,
                            3
                        ],
                        [
                            10,
                            2
                        ],
                        [
                            9,
                            2
                        ]
                    ]
                ],
                "type": "Polygon"
            },
            "id": 25,
            "properties": {
                "name": "b10.75*"
            },
            "type": "Feature"
        },
        {
            "geometry": {
                "coordinates": [
                    [
                        [
                            0,
                            3
                        ],
                        [
                            0,
                            4
                        ],
                        [
                            1,
                            4
                        ],
                        [
                            1,
                            3
                        ],
                        [
                            0,
                            3
                        ]
                    ]
                ],
                "type": "Polygon"
            },
            "id": 26,
            "properties": {
                "name": "b10.76"
            },
            "type": "Feature"
        },
        {
            "geometry": {
                "coordinates": [
                    [
                        [
                            2,
                            3
                        ],
                        [
                            2,
                            4
                        ],
                        [
                            3,
                            4
                        ],
                        [
                            3,
                            3
                        ],
                        [
                            2,
                            3
                        ]
                    ]
                ],
                "type": "Polygon"
            },
            "id": 27,
            "properties": {
                "name": "a9.50"
            },
            "type": "Feature"
        },
        {
            "geometry": {
                "coordinates": [
                    [
                        [
                            3,
                            3
                        ],
                        [
                            3,
                            4
                        ],
                        [
                            4,
                            4
                        ],
                        [
                            4,
                            3
                        ],
                        [
                            3,
                            3
                        ]
                    ]
                ],
                "type": "Polygon"
            },
            "id": 28,
            "properties": {
                "name": "a9.34"
            },
            "type": "Feature"
        },
        {
            "geometry": {
                "coordinates": [
                    [
                        [
                            4,
                            3
                        ],
                        [
                            4,
                            4
                        ],
                        [
                            5,
                            4
                        ],
                        [
                            5,
                            3
                        ],
                        [
                            4,
                            3
                        ]
                    ]
                ],
                "type": "Polygon"
            },
            "id": 29,
            "properties": {
                "name": "a9.38"
            },
            "type": "Feature"
        },
        {
            "geometry": {
                "coordinates": [
                    [
                        [
                            5,
                            3
                        ],
                        [
                            5,
                            4
                        ],
                        [
                            6,
                            4
                        ],
                        [
                            6,
                            3
                        ],
                        [
                            5,
                            3
                        ]
                    ]
                ],
                "type": "Polygon"
            },
            "id": 30,
            "properties": {
                "name": "a9.38*"
            },
            "type": "Feature"
        },
        {
            "geometry": {
                "coordinates": [
                    [
                        [
                            6,
                            3
                        ],
                        [
                            6,
                            4
                        ],
                        [
                            7,
                            4
                        ],
                        [
                            7,
                            3
                        ],
                        [
                            6,
                            3
                        ]
                    ]
                ],
                "type": "Polygon"
            },
            "id": 31,
            "properties": {
                "name": "a9.34*"
            },
            "type": "Feature"
        },
        {
            "geometry": {
                "coordinates": [
                    [
                        [
                            7,
                            3
                        ],
                        [
                            7,
                            4
                        ],
                        [
                            8,
                            4
                        ],
                        [
                            8,
                            3
                        ],
                        [
                            7,
                            3
                        ]
                    ]
                ],
                "type": "Polygon"
            },
            "id": 32,
            "properties": {
                "name": "a9.50*"
            },
            "type": "Feature"
        },
        {
            "geometry": {
                "coordinates": [
                    [
                        [
                            9,
                            3
                        ],
                        [
                            9,
                            4
                        ],
                        [
                            10,
                            4
                        ],
                        [
                            10,
                            3
                        ],
                        [
                            9,
                            3
                        ]
                    ]
                ],
                "type": "Polygon"
            },
            "id": 33,
            "properties": {
                "name": "b10.76*"
            },
            "type": "Feature"
        },
        {
            "geometry": {
                "coordinates": [
                    [
                        [
                            2,
                            4
                        ],
                        [
                            2,
                            5
                        ],
                        [
                            3,
                            5
                        ],
                        [
                            3,
                            4
                        ],
                        [
                            2,
                            4
                        ]
                    ]
                ],
                "type": "Polygon"
            },
            "id": 34,
            "properties": {
                "name": "a9.51"
            },
            "type": "Feature"
        },
        {
            "geometry": {
                "coordinates": [
                    [
                        [
                            3,
                            4
                        ],
                        [
                            3,
                            5
                        ],
                        [
                            4,
                            5
                        ],
                        [
                            4,
                            4
                        ],
                        [
                            3,
                            4
                        ]
                    ]
                ],
                "type": "Polygon"
            },
            "id": 35,
            "properties": {
                "name": "a9.35"
            },
            "type": "Feature"
        },
        {
            "geometry": {
                "coordinates": [
                    [
                        [
                            4,
                            4
                        ],
                        [
                            4,
                            5
                        ],
                        [
                            5,
                            5
                        ],
                        [
                            5,
                            4
                        ],
                        [
                            4,
                            4
                        ]
                    ]
                ],
                "type": "Polygon"
            },
            "id": 36,
            "properties": {
                "name": "a9.39"
            },
            "type": "Feature"
        },
        {
            "geometry": {
                "coordinates": [
                    [
                        [
                            5,
                            4
                        ],
                        [
                            5,
                            5
                        ],
                        [
                            6,
                            5
                        ],
                        [
                            6,
                            4
                        ],
                        [
                            5,
                            4
                        ]
                    ]
                ],
                "type": "Polygon"
            },
            "id": 37,
            "properties": {
                "name": "a9.39*"
            },
            "type": "Feature"
        },
        {
            "geometry": {
                "coordinates": [
                    [
                        [
                            6,
                            4
                        ],
                        [
                            6,
                            5
                        ],
                        [
                            7,
                            5
                        ],
                        [
                            7,
                            4
                        ],
                        [
                            6,
                            4
                        ]
                    ]
                ],
                "type": "Polygon"
            },
            "id": 38,
            "properties": {
                "name": "a9.35*"
            },
            "type": "Feature"
        },
        {
            "geometry": {
                "coordinates": [
                    [
                        [
                            7,
                            4
                        ],
                        [
                            7,
                            5
                        ],
                        [
                            8,
                            5
                        ],
                        [
                            8,
                            4
                        ],
                        [
                            7,
                            4
                        ]
                    ]
                ],
                "type": "Polygon"
            },
            "id": 39,
            "properties": {
                "name": "a9.51*"
            },
            "type": "Feature"
        },
        {
            "geometry": {
                "coordinates": [
                    [
                        [
                            2,
                            5
                        ],
                        [
                            2,
                            6
                        ],
                        [
                            3,
                            6
                        ],
                        [
                            3,
                            5
                        ],
                        [
                            2,
                            5
                        ]
                    ]
                ],
                "type": "Polygon"
            },
            "id": 40,
            "properties": {
                "name": "a9.52"
            },
            "type": "Feature"
        },
        {
            "geometry": {
                "coordinates": [
                    [
                        [
                            3,
                            5
                        ],
                        [
                            3,
                            6
                        ],
                        [
                            4,
                            6
                        ],
                        [
                            4,
                            5
                        ],
                        [
                            3,
                            5
                        ]
                    ]
                ],
                "type": "Polygon"
            },
            "id": 41,
            "properties": {
                "name": "a9.36"
            },
            "type": "Feature"
        },
        {
            "geometry": {
                "coordinates": [
                    [
                        [
                            4,
                            5
                        ],
                        [
                            4,
                            6
                        ],
                        [
                            5,
                            6
                        ],
                        [
                            5,
                            5
                        ],
                        [
                            4,
                            5
                        ]
                    ]
                ],
                "type": "Polygon"
            },
            "id": 42,
            "properties": {
                "name": "a9.40"
            },
            "type": "Feature"
        },
        {
            "geometry": {
                "coordinates": [
                    [
                        [
                            5,
                            5
                        ],
                        [
                            5,
                            6
                        ],
                        [
                            6,
                            6
                        ],
                        [
                            6,
                            5
                        ],
                        [
                            5,
                            5
                        ]
                    ]
                ],
                "type": "Polygon"
            },
            "id": 43,
            "properties": {
                "name": "a9.40*"
            },
            "type": "Feature"
        },
        {
            "geometry": {
                "coordinates": [
                    [
                        [
                            6,
                            5
                        ],
                        [
                            6,
                            6
                        ],
                        [
                            7,
                            6
                        ],
                        [
                            7,
                            5
                        ],
                        [
                            6,
                            5
                        ]
                    ]
                ],
                "type": "Polygon"
            },
            "id": 44,
            "properties": {
                "name": "a9.36*"
            },
            "type": "Feature"
        },
        {
            "geometry": {
                "coordinates": [
                    [
                        [
                            7,
                            5
                        ],
                        [
                            7,
                            6
                        ],
                        [
                            8,
                            6
                        ],
                        [
                            8,
                            5
                        ],
                        [
                            7,
                            5
                        ]
                    ]
                ],
                "type": "Polygon"
            },
            "id": 45,
            "properties": {
                "name": "a9.52*"
            },
            "type": "Feature"
        }
    ],
    "type": "FeatureCollection"
}
