{"type":"FeatureCollection","features":[{"type":"Feature","geometry":{"type":"Polygon","coordinates":[[[1,0],[1,1],[2,1],[2,0],[1,0]]]},"properties":{"name":"A10.61"},"id":0},{"type":"Feature","geometry":{"type":"Polygon","coordinates":[[[2,0],[2,1],[3,1],[3,0],[2,0]]]},"properties":{"name":"A10.57"},"id":1},{"type":"Feature","geometry":{"type":"Polygon","coordinates":[[[3,0],[3,1],[4,1],[4,0],[3,0]]]},"properties":{"name":"A10.29"},"id":2},{"type":"Feature","geometry":{"type":"Polygon","coordinates":[[[4,0],[4,1],[5,1],[5,0],[4,0]]]},"properties":{"name":"A10.25"},"id":3},{"type":"Feature","geometry":{"type":"Polygon","coordinates":[[[5,0],[5,1],[6,1],[6,0],[5,0]]]},"properties":{"name":"A10.25"},"id":4},{"type":"Feature","geometry":{"type":"Polygon","coordinates":[[[6,0],[6,1],[7,1],[7,0],[6,0]]]},"properties":{"name":"A10.29"},"id":5},{"type":"Feature","geometry":{"type":"Polygon","coordinates":[[[7,0],[7,1],[8,1],[8,0],[7,0]]]},"properties":{"name":"A10.57"},"id":6},{"type":"Feature","geometry":{"type":"Polygon","coordinates":[[[8,0],[8,1],[9,1],[9,0],[8,0]]]},"properties":{"name":"A10.61"},"id":7},{"type":"Feature","geometry":{"type":"Polygon","coordinates":[[[0,1],[0,2],[1,2],[1,1],[0,1]]]},"properties":{"name":"b10.73"},"id":8},{"type":"Feature","geometry":{"type":"Polygon","coordinates":[[[1,1],[1,2],[2,2],[2,1],[1,1]]]},"properties":{"name":"A10.62"},"id":9},{"type":"Feature","geometry":{"type":"Polygon","coordinates":[[[2,1],[2,2],[3,2],[3,1],[2,1]]]},"properties":{"name":"A10.58"},"id":10},{"type":"Feature","geometry":{"type":"Polygon","coordinates":[[[3,1],[3,2],[4,2],[4,1],[3,1]]]},"properties":{"name":"A10.30"},"id":11},{"type":"Feature","geometry":{"type":"Polygon","coordinates":[[[4,1],[4,2],[5,2],[5,1],[4,1]]]},"properties":{"name":"A10.26"},"id":12},{"type":"Feature","geometry":{"type":"Polygon","coordinates":[[[5,1],[5,2],[6,2],[6,1],[5,1]]]},"properties":{"name":"A10.26"},"id":13},{"type":"Feature","geometry":{"type":"Polygon","coordinates":[[[6,1],[6,2],[7,2],[7,1],[6,1]]]},"properties":{"name":"A10.30"},"id":14},{"type":"Feature","geometry":{"type":"Polygon","coordinates":[[[7,1],[7,2],[8,2],[8,1],[7,1]]]},"properties":{"name":"A10.58"},"id":15},{"type":"Feature","geometry":{"type":"Polygon","coordinates":[[[8,1],[8,2],[9,2],[9,1],[8,1]]]},"properties":{"name":"A10.62"},"id":16},{"type":"Feature","geometry":{"type":"Polygon","coordinates":[[[9,1],[9,2],[10,2],[10,1],[9,1]]]},"properties":{"name":"b10.73"},"id":17},{"type":"Feature","geometry":{"type":"Polygon","coordinates":[[[0,2],[0,3],[1,3],[1,2],[0,2]]]},"properties":{"name":"b10.74"},"id":18},{"type":"Feature","geometry":{"type":"Polygon","coordinates":[[[1,2],[1,3],[2,3],[2,2],[1,2]]]},"properties":{"name":"A10.63"},"id":19},{"type":"Feature","geometry":{"type":"Polygon","coordinates":[[[2,2],[2,3],[3,3],[3,2],[2,2]]]},"properties":{"name":"A10.59"},"id":20},{"type":"Feature","geometry":{"type":"Polygon","coordinates":[[[3,2],[3,3],[4,3],[4,2],[3,2]]]},"properties":{"name":"A10.31"},"id":21},{"type":"Feature","geometry":{"type":"Polygon","coordinates":[[[4,2],[4,3],[5,3],[5,2],[4,2]]]},"properties":{"name":"A10.27"},"id":22},{"type":"Feature","geometry":{"type":"Polygon","coordinates":[[[5,2],[5,3],[6,3],[6,2],[5,2]]]},"properties":{"name":"A10.27"},"id":23},{"type":"Feature","geometry":{"type":"Polygon","coordinates":[[[6,2],[6,3],[7,3],[7,2],[6,2]]]},"properties":{"name":"A10.31"},"id":24},{"type":"Feature","geometry":{"type":"Polygon","coordinates":[[[7,2],[7,3],[8,3],[8,2],[7,2]]]},"properties":{"name":"A10.59"},"id":25},{"type":"Feature","geometry":{"type":"Polygon","coordinates":[[[8,2],[8,3],[9,3],[9,2],[8,2]]]},"properties":{"name":"A10.63"},"id":26},{"type":"Feature","geometry":{"type":"Polygon","coordinates":[[[9,2],[9,3],[10,3],[10,2],[9,2]]]},"properties":{"name":"b10.74"},"id":27},{"type":"Feature","geometry":{"type":"Polygon","coordinates":[[[0,3],[0,4],[1,4],[1,3],[0,3]]]},"properties":{"name":"b10.75"},"id":28},{"type":"Feature","geometry":{"type":"Polygon","coordinates":[[[1,3],[1,4],[2,4],[2,3],[1,3]]]},"properties":{"name":"A10.64"},"id":29},{"type":"Feature","geometry":{"type":"Polygon","coordinates":[[[2,3],[2,4],[3,4],[3,3],[2,3]]]},"properties":{"name":"A10.60"},"id":30},{"type":"Feature","geometry":{"type":"Polygon","coordinates":[[[3,3],[3,4],[4,4],[4,3],[3,3]]]},"properties":{"name":"A10.32"},"id":31},{"type":"Feature","geometry":{"type":"Polygon","coordinates":[[[4,3],[4,4],[5,4],[5,3],[4,3]]]},"properties":{"name":"A10.28"},"id":32},{"type":"Feature","geometry":{"type":"Polygon","coordinates":[[[5,3],[5,4],[6,4],[6,3],[5,3]]]},"properties":{"name":"A10.28"},"id":33},{"type":"Feature","geometry":{"type":"Polygon","coordinates":[[[6,3],[6,4],[7,4],[7,3],[6,3]]]},"properties":{"name":"A10.32"},"id":34},{"type":"Feature","geometry":{"type":"Polygon","coordinates":[[[7,3],[7,4],[8,4],[8,3],[7,3]]]},"properties":{"name":"A10.60"},"id":35},{"type":"Feature","geometry":{"type":"Polygon","coordinates":[[[8,3],[8,4],[9,4],[9,3],[8,3]]]},"properties":{"name":"A10.64"},"id":36},{"type":"Feature","geometry":{"type":"Polygon","coordinates":[[[9,3],[9,4],[10,4],[10,3],[9,3]]]},"properties":{"name":"b10.75"},"id":37},{"type":"Feature","geometry":{"type":"Polygon","coordinates":[[[0,4],[0,5],[1,5],[1,4],[0,4]]]},"properties":{"name":"b10.76"},"id":38},{"type":"Feature","geometry":{"type":"Polygon","coordinates":[[[2,4],[2,5],[3,5],[3,4],[2,4]]]},"properties":{"name":"a10.97"},"id":39},{"type":"Feature","geometry":{"type":"Polygon","coordinates":[[[3,4],[3,5],[4,5],[4,4],[3,4]]]},"properties":{"name":"a10.65"},"id":40},{"type":"Feature","geometry":{"type":"Polygon","coordinates":[[[4,4],[4,5],[5,5],[5,4],[4,4]]]},"properties":{"name":"a10.73"},"id":41},{"type":"Feature","geometry":{"type":"Polygon","coordinates":[[[5,4],[5,5],[6,5],[6,4],[5,4]]]},"properties":{"name":"a10.73"},"id":42},{"type":"Feature","geometry":{"type":"Polygon","coordinates":[[[6,4],[6,5],[7,5],[7,4],[6,4]]]},"properties":{"name":"a10.65"},"id":43},{"type":"Feature","geometry":{"type":"Polygon","coordinates":[[[7,4],[7,5],[8,5],[8,4],[7,4]]]},"properties":{"name":"a10.97"},"id":44},{"type":"Feature","geometry":{"type":"Polygon","coordinates":[[[9,4],[9,5],[10,5],[10,4],[9,4]]]},"properties":{"name":"b10.76"},"id":45},{"type":"Feature","geometry":{"type":"Polygon","coordinates":[[[2,5],[2,6],[3,6],[3,5],[2,5]]]},"properties":{"name":"a10.98"},"id":46},{"type":"Feature","geometry":{"type":"Polygon","coordinates":[[[3,5],[3,6],[4,6],[4,5],[3,5]]]},"properties":{"name":"a10.66"},"id":47},{"type":"Feature","geometry":{"type":"Polygon","coordinates":[[[4,5],[4,6],[5,6],[5,5],[4,5]]]},"properties":{"name":"a10.74"},"id":48},{"type":"Feature","geometry":{"type":"Polygon","coordinates":[[[5,5],[5,6],[6,6],[6,5],[5,5]]]},"properties":{"name":"a10.74"},"id":49},{"type":"Feature","geometry":{"type":"Polygon","coordinates":[[[6,5],[6,6],[7,6],[7,5],[6,5]]]},"properties":{"name":"a10.66"},"id":50},{"type":"Feature","geometry":{"type":"Polygon","coordinates":[[[7,5],[7,6],[8,6],[8,5],[7,5]]]},"properties":{"name":"a10.98"},"id":51},{"type":"Feature","geometry":{"type":"Polygon","coordinates":[[[2,6],[2,7],[3,7],[3,6],[2,6]]]},"properties":{"name":"a10.99"},"id":52},{"type":"Feature","geometry":{"type":"Polygon","coordinates":[[[3,6],[3,7],[4,7],[4,6],[3,6]]]},"properties":{"name":"a10.67"},"id":53},{"type":"Feature","geometry":{"type":"Polygon","coordinates":[[[4,6],[4,7],[5,7],[5,6],[4,6]]]},"properties":{"name":"a10.75"},"id":54},{"type":"Feature","geometry":{"type":"Polygon","coordinates":[[[5,6],[5,7],[6,7],[6,6],[5,6]]]},"properties":{"name":"a10.75"},"id":55},{"type":"Feature","geometry":{"type":"Polygon","coordinates":[[[6,6],[6,7],[7,7],[7,6],[6,6]]]},"properties":{"name":"a10.67"},"id":56},{"type":"Feature","geometry":{"type":"Polygon","coordinates":[[[7,6],[7,7],[8,7],[8,6],[7,6]]]},"properties":{"name":"a10.99"},"id":57},{"type":"Feature","geometry":{"type":"Polygon","coordinates":[[[2,7],[2,8],[3,8],[3,7],[2,7]]]},"properties":{"name":"a10.100"},"id":58},{"type":"Feature","geometry":{"type":"Polygon","coordinates":[[[3,7],[3,8],[4,8],[4,7],[3,7]]]},"properties":{"name":"a10.68"},"id":59},{"type":"Feature","geometry":{"type":"Polygon","coordinates":[[[4,7],[4,8],[5,8],[5,7],[4,7]]]},"properties":{"name":"a10.76"},"id":60},{"type":"Feature","geometry":{"type":"Polygon","coordinates":[[[5,7],[5,8],[6,8],[6,7],[5,7]]]},"properties":{"name":"a10.76"},"id":61},{"type":"Feature","geometry":{"type":"Polygon","coordinates":[[[6,7],[6,8],[7,8],[7,7],[6,7]]]},"properties":{"name":"a10.68"},"id":62},{"type":"Feature","geometry":{"type":"Polygon","coordinates":[[[7,7],[7,8],[8,8],[8,7],[7,7]]]},"properties":{"name":"a10.100"},"id":63},{"type":"Feature","geometry":{"type":"Polygon","coordinates":[[[2,8],[2,9],[3,9],[3,8],[2,8]]]},"properties":{"name":"a10.101"},"id":64},{"type":"Feature","geometry":{"type":"Polygon","coordinates":[[[3,8],[3,9],[4,9],[4,8],[3,8]]]},"properties":{"name":"a10.69"},"id":65},{"type":"Feature","geometry":{"type":"Polygon","coordinates":[[[4,8],[4,9],[5,9],[5,8],[4,8]]]},"properties":{"name":"a10.77"},"id":66},{"type":"Feature","geometry":{"type":"Polygon","coordinates":[[[5,8],[5,9],[6,9],[6,8],[5,8]]]},"properties":{"name":"a10.77"},"id":67},{"type":"Feature","geometry":{"type":"Polygon","coordinates":[[[6,8],[6,9],[7,9],[7,8],[6,8]]]},"properties":{"name":"a10.69"},"id":68},{"type":"Feature","geometry":{"type":"Polygon","coordinates":[[[7,8],[7,9],[8,9],[8,8],[7,8]]]},"properties":{"name":"a10.101"},"id":69},{"type":"Feature","geometry":{"type":"Polygon","coordinates":[[[2,9],[2,10],[3,10],[3,9],[2,9]]]},"properties":{"name":"a10.102"},"id":70},{"type":"Feature","geometry":{"type":"Polygon","coordinates":[[[3,9],[3,10],[4,10],[4,9],[3,9]]]},"properties":{"name":"a10.70"},"id":71},{"type":"Feature","geometry":{"type":"Polygon","coordinates":[[[4,9],[4,10],[5,10],[5,9],[4,9]]]},"properties":{"name":"a10.78"},"id":72},{"type":"Feature","geometry":{"type":"Polygon","coordinates":[[[5,9],[5,10],[6,10],[6,9],[5,9]]]},"properties":{"name":"a10.78"},"id":73},{"type":"Feature","geometry":{"type":"Polygon","coordinates":[[[6,9],[6,10],[7,10],[7,9],[6,9]]]},"properties":{"name":"a10.70"},"id":74},{"type":"Feature","geometry":{"type":"Polygon","coordinates":[[[7,9],[7,10],[8,10],[8,9],[7,9]]]},"properties":{"name":"a10.102"},"id":75},{"type":"Feature","geometry":{"type":"Polygon","coordinates":[[[2,10],[2,11],[3,11],[3,10],[2,10]]]},"properties":{"name":"a10.103"},"id":76},{"type":"Feature","geometry":{"type":"Polygon","coordinates":[[[3,10],[3,11],[4,11],[4,10],[3,10]]]},"properties":{"name":"a10.71"},"id":77},{"type":"Feature","geometry":{"type":"Polygon","coordinates":[[[4,10],[4,11],[5,11],[5,10],[4,10]]]},"properties":{"name":"a10.79"},"id":78},{"type":"Feature","geometry":{"type":"Polygon","coordinates":[[[5,10],[5,11],[6,11],[6,10],[5,10]]]},"properties":{"name":"a10.79"},"id":79},{"type":"Feature","geometry":{"type":"Polygon","coordinates":[[[6,10],[6,11],[7,11],[7,10],[6,10]]]},"properties":{"name":"a10.71"},"id":80},{"type":"Feature","geometry":{"type":"Polygon","coordinates":[[[7,10],[7,11],[8,11],[8,10],[7,10]]]},"properties":{"name":"a10.103"},"id":81},{"type":"Feature","geometry":{"type":"Polygon","coordinates":[[[2,11],[2,12],[3,12],[3,11],[2,11]]]},"properties":{"name":"a10.104"},"id":82},{"type":"Feature","geometry":{"type":"Polygon","coordinates":[[[3,11],[3,12],[4,12],[4,11],[3,11]]]},"properties":{"name":"a10.72"},"id":83},{"type":"Feature","geometry":{"type":"Polygon","coordinates":[[[4,11],[4,12],[5,12],[5,11],[4,11]]]},"properties":{"name":"a10.80"},"id":84},{"type":"Feature","geometry":{"type":"Polygon","coordinates":[[[5,11],[5,12],[6,12],[6,11],[5,11]]]},"properties":{"name":"a10.80"},"id":85},{"type":"Feature","geometry":{"type":"Polygon","coordinates":[[[6,11],[6,12],[7,12],[7,11],[6,11]]]},"properties":{"name":"a10.72"},"id":86},{"type":"Feature","geometry":{"type":"Polygon","coordinates":[[[7,11],[7,12],[8,12],[8,11],[7,11]]]},"properties":{"name":"a10.104"},"id":87}]}